norad_id,name,regime,epoch,line1,line2,inclination,eccentricity,mean_motion,raan,arg_pericenter,mean_anomaly
44333,AT&T T-16,GEO,19241.44627028,1 44333U 19034A   19241.44627028 -.00000137  00000-0  00000+0 0   794,2 44333   0.0181 130.0066 0002487  46.9050 215.3023  1.00501814   758,0.0181,0.0002487,1.00501814,130.0066,46.905,215.3023
44333,AT&T T-16,GEO,19241.86724441,1 44333U 19034A   19241.86724441 -.00000140 +00000-0 +00000-0 0 0001,2 44333 000.0187 131.1014 0002477 045.5770 007.8529 01.0050176100076,0.0187,0.0002477,1.00501761,131.1014,45.577,7.8529
44333,AT&T T-16,GEO,19242.45571042,1 44333U 19034A   19242.45571042 -.00000144  00000-0  00000+0 0   822,2 44333   0.0196 131.6185 0002518  44.1877 221.6439  1.00501754   760,0.0196,0.0002518,1.00501754,131.6185,44.1877,221.6439
44333,AT&T T-16,GEO,19242.94493831,1 44333U 19034A   19242.94493831 -.00000147 +00000-0 +00000-0 0 0001,2 44333 000.0201 131.7924 0002522 043.6898 038.9805 01.0050174300077,0.0201,0.0002522,1.00501743,131.7924,43.6898,38.9805
44333,AT&T T-16,GEO,19243.44841144,1 44333U 19034A   19243.44841144 -.00000151  00000-0  00000+0 0   834,2 44333   0.0206 131.5095 0002569  43.5197 221.5997  1.00501788   771,0.0206,0.0002569,1.00501788,131.5095,43.5197,221.5997
44333,AT&T T-16,GEO,19243.87761451,1 44333U 19034A   19243.87761451 -.00000153 +00000-0 +00000-0 0 0001,2 44333 000.0209 130.8416 0002576 043.6938 017.3877 01.0050180300078,0.0209,0.0002576,1.00501803,130.8416,43.6938,17.3877
44333,AT&T T-16,GEO,19244.52281747,1 44333U 19034A   19244.52281747 -.00000157  00000-0  00000+0 0   848,2 44333   0.0214 129.7681 0002636  44.6133 250.9883  1.00501912   787,0.0214,0.0002636,1.00501912,129.7681,44.6133,250.9883
44333,AT&T T-16,GEO,19244.88868609,1 44333U 19034A   19244.88868609 -.00000159 +00000-0 +00000-0 0 0001,2 44333 000.0218 128.2627 0002650 045.8942 023.5913 01.0050194000079,0.0218,0.000265,1.0050194,128.2627,45.8942,23.5913
44333,AT&T T-16,GEO,19245.54467212,1 44333U 19034A   19245.54467212 -.00000162  00000-0  00000+0 0   851,2 44333   0.0224 126.5841 0002706  47.7614 260.7511  1.00502061   791,0.0224,0.0002706,1.00502061,126.5841,47.7614,260.7511
44333,AT&T T-16,GEO,19245.88792612,1 44333U 19034A   19245.88792612 -.00000164 +00000-0 +00000-0 0 0001,2 44333 000.0229 124.6723 0002724 049.5972 025.0232 01.0050209400080,0.0229,0.0002724,1.00502094,124.6723,49.5972,25.0232
44333,AT&T T-16,GEO,19246.46236091,1 44333U 19034A   19246.46236091 -.00000167  00000-0  00000+0 0   868,2 44333   0.0197 116.9201 0002653  58.4881 231.7253  1.00503841   809,0.0197,0.0002653,1.00503841,116.9201,58.4881,231.7253
44333,AT&T T-16,GEO,19246.62896517,1 44333U 19034A   19246.62896517 -.00000168  00000-0  00000+0 0   873,2 44333   0.0209 108.0923 0002494  70.8737 288.4463  1.00503520   803,0.0209,0.0002494,1.0050352,108.0923,70.8737,288.4463
44333,AT&T T-16,GEO,19246.89317767,1 44333U 19034A   19246.89317767 -.00000169 +00000-0 +00000-0 0 0001,2 44333 000.0203 116.8893 0002644 058.6514 027.4716 01.0050379400081,0.0203,0.0002644,1.00503794,116.8893,58.6514,27.4716
44333,AT&T T-16,GEO,19247.18035817,1 44333U 19034A   19247.18035817 -.00000170  00000-0  00000+0 0   887,2 44333   0.0196 115.6527 0002662  60.2189 131.0488  1.00503825   801,0.0196,0.0002662,1.00503825,115.6527,60.2189,131.0488
44333,AT&T T-16,GEO,19249.69289352,1 44333U 19034A   19249.69289352 -.00000139  00000-0  00000+0 0   896,2 44333   0.0134 103.7721 0002297 293.3124  96.9966  1.00275168   838,0.0134,0.0002297,1.00275168,103.7721,293.3124,96.9966
44333,AT&T T-16,GEO,19252.63611773,1 44333U 19034A   19252.63611773 -.00000137  00000-0  00000+0 0   900,2 44333   0.0189  96.5657 0002025 298.6321  81.3365  1.00271577   865,0.0189,0.0002025,1.00271577,96.5657,298.6321,81.3365
44333,AT&T T-16,GEO,19252.85140953,1 44333U 19034A   19252.85140953 -.00000137 +00000-0 +00000-0 0 0001,2 44333 000.0190 098.7876 0001953 294.9901 160.4754 01.0027159000087,0.019,0.0001953,1.0027159,98.7876,294.9901,160.4754
44333,AT&T T-16,GEO,19253.64117802,1 44333U 19034A   19253.64117802 -.00000136 +00000-0 +00000-0 0 0091,2 44333 000.0209 098.7612 0001882 293.2566 087.3297 01.0027161000087,0.0209,0.0001882,1.0027161,98.7612,293.2566,87.3297
44333,AT&T T-16,GEO,19254.64612907,1 44333U 19034A   19254.64612907 -.00000135  00000-0  00000+0 0   923,2 44333   0.0233  99.0167 0001287 284.9384  98.1692  1.00270808   882,0.0233,0.0001287,1.00270808,99.0167,284.9384,98.1692
44333,AT&T T-16,GEO,19255.22040889,1 44333U 19034A   19255.22040889 -.00000133 +00000-0 +00000-0 0 0001,2 44333 000.0244 099.3840 0001235 283.9315 306.1137 01.0027101900089,0.0244,0.0001235,1.00271019,99.384,283.9315,306.1137
44333,AT&T T-16,GEO,19256.08190053,1 44333U 19034A   19256.08190053 -.00000132  00000-0  00000+0 0   934,2 44333   0.0225 100.0266 0001162 278.0110 262.3846  1.00270630   899,0.0225,0.0001162,1.0027063,100.0266,278.011,262.3846
44333,AT&T T-16,GEO,19256.54023213,1 44333U 19034A   19256.54023213 -.00000131  00000-0  00000+0 0   948,2 44333   0.0217 100.2910 0001468 274.8430  70.7443  1.00272374   909,0.0217,0.0001468,1.00272374,100.291,274.843,70.7443
44333,AT&T T-16,GEO,19256.65617451,1 44333U 19034A   19256.65617451 -.00000130 +00000-0 +00000-0 0 0001,2 44333 000.0218 100.6933 0001482 272.9508 114.0872 01.0027196500091,0.0218,0.0001482,1.00271965,100.6933,272.9508,114.0872
44333,AT&T T-16,GEO,19257.34285696,1 44333U 19034A   19257.34285696 -.00000128  00000-0  00000+0 0   959,2 44333   0.0174 128.1172 0001333 213.0718  34.4226  1.00272204   914,0.0174,0.0001333,1.00272204,128.1172,213.0718,34.4226
44333,AT&T T-16,GEO,19257.62480059,1 44333U 19034A   19257.62480059 -.00000129  00000-0  00000+0 0   962,2 44333   0.0190 103.0072 0002045 252.0481 122.3359  1.00279756   917,0.019,0.0002045,1.00279756,103.0072,252.0481,122.3359
44333,AT&T T-16,GEO,19257.91854703,1 44333U 19034A   19257.91854703 -.00000127 +00000-0 +00000-0 0 0001,2 44333 000.0185 104.6911 0001306 260.8050 217.9423 01.0027410700092,0.0185,0.0001306,1.00274107,104.6911,260.805,217.9423
44333,AT&T T-16,GEO,19258.10396546,1 44333U 19034A   19258.10396546 -.00000126  00000-0  00000+0 0   971,2 44333   0.0192 103.6312 0001187 264.9840 281.7555  1.00272097   929,0.0192,0.0001187,1.00272097,103.6312,264.984,281.7555
44333,AT&T T-16,GEO,19258.59436847,1 44333U 19034A   19258.59436847 -.00000125 +00000-0 +00000-0 0 0001,2 44333 000.0188 103.9514 0001248 260.2598 103.1911 01.0027289700093,0.0188,0.0001248,1.00272897,103.9514,260.2598,103.1911
44333,AT&T T-16,GEO,19259.31924475,1 44333U 19034A   19259.31924475 -.00000123  00000-0  00000+0 0   981,2 44333   0.0179 104.3414 0000951 247.5009  17.2254  1.00268845   932,0.0179,9.51e-05,1.00268845,104.3414,247.5009,17.2254
44333,AT&T T-16,GEO,19259.55960133,1 44333U 19034A   19259.55960133 -.00000122 +00000-0 +00000-0 0 0001,2 44333 000.0186 103.7243 0000961 251.2364 100.8726 01.0027016700093,0.0186,9.61e-05,1.00270167,103.7243,251.2364,100.8726
44333,AT&T T-16,GEO,19260.47197664,1 44333U 19034A   19260.47197664 -.00000120  00000-0  00000+0 0   990,2 44333   0.0209 101.7707 0001009 249.7832  73.6264  1.00269760   940,0.0209,0.0001009,1.0026976,101.7707,249.7832,73.6264
44333,AT&T T-16,GEO,19260.60438299,1 44333U 19034A   19260.60438299 -.00000120 +00000-0 +00000-0 0 0001,2 44333 000.0211 100.9228 0001011 249.7291 122.3241 01.0026969700095,0.0211,0.0001011,1.00269697,100.9228,249.7291,122.3241
44333,AT&T T-16,GEO,19261.61035310,1 44333U 19034A   19261.61035310 -.00000118  00000-0  00000+0 0  1006,2 44333   0.0238  99.0139 0001058 247.7824 129.3125  1.00269585   954,0.0238,0.0001058,1.00269585,99.0139,247.7824,129.3125
44333,AT&T T-16,GEO,19261.89007822,1 44333U 19034A   19261.89007822 -.00000118 +00000-0 +00000-0 0 0001,2 44333 000.0246 098.6975 0001078 247.7456 230.6400 01.0026954300096,0.0246,0.0001078,1.00269543,98.6975,247.7456,230.64
44333,AT&T T-16,GEO,19262.33174983,1 44333U 19034A   19262.33174983 -.00000118  00000-0  00000+0 0  1017,2 44333   0.0257  98.5975 0001098 235.0819  42.8437  1.00271294   961,0.0257,0.0001098,1.00271294,98.5975,235.0819,42.8437
44333,AT&T T-16,GEO,19262.63035562,1 44333U 19034A   19262.63035562 -.00000119  00000-0  00000+0 0  1043,2 44333   0.0241  98.3946 0001327 248.1755 137.7539  1.00274144   963,0.0241,0.0001327,1.00274144,98.3946,248.1755,137.7539
44333,AT&T T-16,GEO,19263.60743903,1 44333U 19034A   19263.60743903 -.00000119 +00000-0 +00000-0 0 0001,2 44333 000.0208 100.9616 0001365 247.0479 129.0348 01.0027284300098,0.0208,0.0001365,1.00272843,100.9616,247.0479,129.0348
44333,AT&T T-16,GEO,19263.97840498,1 44333U 19034A   19263.97840498 -.00000120  00000-0  00000+0 0  1056,2 44333   0.0218 100.2262 0001297 244.0510 266.6849  1.00274294   974,0.0218,0.0001297,1.00274294,100.2262,244.051,266.6849
44333,AT&T T-16,GEO,19264.59406837,1 44333U 19034A   19264.59406837 -.00000121  00000-0  00000+0 0  1062,2 44333   0.0180 104.4115 0001320 246.6866 122.1125  1.00272799   986,0.018,0.000132,1.00272799,104.4115,246.6866,122.1125
44333,AT&T T-16,GEO,19265.48591678,1 44333U 19034A   19265.48591678 -.00000123  00000-0  00000+0 0  1072,2 44333   0.0177 105.1731 0000961 240.2882  89.6907  1.00270037   991,0.0177,9.61e-05,1.00270037,105.1731,240.2882,89.6907
44333,AT&T T-16,GEO,19265.60535586,1 44333U 19034A   19265.60535586 -.00000123 +00000-0 +00000-0 0 0001,2 44333 000.0180 104.6013 0000946 239.8841 133.7821 01.0027036500100,0.018,9.46e-05,1.00270365,104.6013,239.8841,133.7821
44333,AT&T T-16,GEO,19266.03244100,1 44333U 19034A   19266.03244100 -.00000125  00000-0  00000+0 0  1082,2 44333   0.0191 102.6732 0000770 237.7084 292.0626  1.00273135   993,0.0191,7.7e-05,1.00273135,102.6732,237.7084,292.0626
44333,AT&T T-16,GEO,19266.42618780,1 44333U 19034A   19266.42618780 -.00000126  00000-0  00000+0 0  1096,2 44333   0.0174 106.9891 0000515 225.0207  82.5640  1.00268575  1004,0.0174,5.15e-05,1.00268575,106.9891,225.0207,82.564
